{
 "generated_at": "2026-07-14T07:10:30Z",
 "sources": [
  {
   "name": "CelesTrak",
   "url": "https://celestrak.org/NORAD/elements/",
   "license": "frei verfügbar; Attribution. Ursprünglich USSPACECOM/Space-Track."
  },
  {
   "name": "GCAT (J. McDowell, planet4589.org)",
   "url": "https://planet4589.org/space/gcat/",
   "license": "CC-BY 4.0"
  }
 ],
 "satellites": [
  {
   "norad": 68835,
   "name": "PRSC-E03",
   "intl": "2026-092A",
   "group": "resource",
   "gcat": {
    "class": "C",
    "category": "IMG",
    "owner": "SUPA",
    "state": "PK"
   },
   "omm": {
    "OBJECT_NAME": "PRSC-E03",
    "OBJECT_ID": "2026-092A",
    "EPOCH": "2026-07-13T16:43:54.471072",
    "MEAN_MOTION": 15.06805087,
    "ECCENTRICITY": 0.0004801,
    "INCLINATION": 38.0017,
    "RA_OF_ASC_NODE": 293.342,
    "ARG_OF_PERICENTER": 241.9248,
    "MEAN_ANOMALY": 118.1028,
    "EPHEMERIS_TYPE": 0,
    "CLASSIFICATION_TYPE": "U",
    "NORAD_CAT_ID": 68835,
    "ELEMENT_SET_NO": 999,
    "REV_AT_EPOCH": 1195,
    "BSTAR": 0.000095726,
    "MEAN_MOTION_DOT": 0.00001343,
    "MEAN_MOTION_DDOT": 0
   }
  },
  {
   "norad": 62725,
   "name": "PRSC-EO1",
   "intl": "2025-012A",
   "group": "resource",
   "gcat": {
    "class": "C",
    "category": "IMG",
    "owner": "JHQJ/YINHE",
    "state": "CN"
   },
   "omm": {
    "OBJECT_NAME": "PRSC-EO1",
    "OBJECT_ID": "2025-012A",
    "EPOCH": "2026-07-13T19:52:52.104576",
    "MEAN_MOTION": 15.17609732,
    "ECCENTRICITY": 0.0006654,
    "INCLINATION": 97.4221,
    "RA_OF_ASC_NODE": 266.7659,
    "ARG_OF_PERICENTER": 150.3739,
    "MEAN_ANOMALY": 209.7873,
    "EPHEMERIS_TYPE": 0,
    "CLASSIFICATION_TYPE": "U",
    "NORAD_CAT_ID": 62725,
    "ELEMENT_SET_NO": 999,
    "REV_AT_EPOCH": 8223,
    "BSTAR": 0.0001899,
    "MEAN_MOTION_DOT": 0.00003753,
    "MEAN_MOTION_DDOT": 0
   }
  },
  {
   "norad": 65055,
   "name": "PRSC-S1",
   "intl": "2025-164A",
   "group": "resource",
   "gcat": {
    "class": "C",
    "category": "IMG-R",
    "owner": "SUPA",
    "state": "PK"
   },
   "omm": {
    "OBJECT_NAME": "PRSC-S1",
    "OBJECT_ID": "2025-164A",
    "EPOCH": "2026-07-13T21:55:45.710400",
    "MEAN_MOTION": 15.06628777,
    "ECCENTRICITY": 0.0006508,
    "INCLINATION": 41.1296,
    "RA_OF_ASC_NODE": 137.2644,
    "ARG_OF_PERICENTER": 189.9382,
    "MEAN_ANOMALY": 170.1304,
    "EPHEMERIS_TYPE": 0,
    "CLASSIFICATION_TYPE": "U",
    "NORAD_CAT_ID": 65055,
    "ELEMENT_SET_NO": 999,
    "REV_AT_EPOCH": 5246,
    "BSTAR": 0.00016135,
    "MEAN_MOTION_DOT": 0.00002257,
    "MEAN_MOTION_DDOT": 0
   }
  },
  {
   "norad": 64055,
   "name": "QPS-SAR-10 (WADATSUMI-I)",
   "intl": "2025-104A",
   "group": "sar",
   "gcat": {
    "class": "B",
    "category": "IMG-R",
    "owner": "QPS",
    "state": "J"
   },
   "omm": {
    "OBJECT_NAME": "QPS-SAR-10 (WADATSUMI-I)",
    "OBJECT_ID": "2025-104A",
    "EPOCH": "2026-07-13T20:33:07.411392",
    "MEAN_MOTION": 15.01975651,
    "ECCENTRICITY": 0.0012371,
    "INCLINATION": 42.0031,
    "RA_OF_ASC_NODE": 131.8624,
    "ARG_OF_PERICENTER": 158.7547,
    "MEAN_ANOMALY": 201.3795,
    "EPHEMERIS_TYPE": 0,
    "CLASSIFICATION_TYPE": "U",
    "NORAD_CAT_ID": 64055,
    "ELEMENT_SET_NO": 999,
    "REV_AT_EPOCH": 6344,
    "BSTAR": 0.00019473,
    "MEAN_MOTION_DOT": 0.00002409,
    "MEAN_MOTION_DDOT": 0
   }
  },
  {
   "norad": 64340,
   "name": "QPS-SAR-11 (YAMATSUMI-I)",
   "intl": "2025-125A",
   "group": "sar",
   "gcat": {
    "class": "B",
    "category": "IMG-R",
    "owner": "QPS",
    "state": "J"
   },
   "omm": {
    "OBJECT_NAME": "QPS-SAR-11 (YAMATSUMI-I)",
    "OBJECT_ID": "2025-125A",
    "EPOCH": "2026-07-13T17:29:08.403072",
    "MEAN_MOTION": 15.01824026,
    "ECCENTRICITY": 0.0011334,
    "INCLINATION": 42.0088,
    "RA_OF_ASC_NODE": 45.4069,
    "ARG_OF_PERICENTER": 295.9379,
    "MEAN_ANOMALY": 64.0279,
    "EPHEMERIS_TYPE": 0,
    "CLASSIFICATION_TYPE": "U",
    "NORAD_CAT_ID": 64340,
    "ELEMENT_SET_NO": 999,
    "REV_AT_EPOCH": 5961,
    "BSTAR": 0.00018688,
    "MEAN_MOTION_DOT": 0.00002294,
    "MEAN_MOTION_DDOT": 0
   }
  },
  {
   "norad": 65116,
   "name": "QPS-SAR-12 (KUSHINADA-I)",
   "intl": "2025-169A",
   "group": "sar",
   "gcat": {
    "class": "B",
    "category": "IMG-R",
    "owner": "QPS",
    "state": "J"
   },
   "omm": {
    "OBJECT_NAME": "QPS-SAR-12 (KUSHINADA-I)",
    "OBJECT_ID": "2025-169A",
    "EPOCH": "2026-07-13T12:33:14.817024",
    "MEAN_MOTION": 15.01059937,
    "ECCENTRICITY": 0.0007014,
    "INCLINATION": 42.01,
    "RA_OF_ASC_NODE": 230.9316,
    "ARG_OF_PERICENTER": 17.671,
    "MEAN_ANOMALY": 342.4359,
    "EPHEMERIS_TYPE": 0,
    "CLASSIFICATION_TYPE": "U",
    "NORAD_CAT_ID": 65116,
    "ELEMENT_SET_NO": 999,
    "REV_AT_EPOCH": 5137,
    "BSTAR": 0.00015528,
    "MEAN_MOTION_DOT": 0.00001833,
    "MEAN_MOTION_DDOT": 0
   }
  },
  {
   "norad": 66316,
   "name": "QPS-SAR-14 (YACHIHOKO-I)",
   "intl": "2025-252A",
   "group": "sar",
   "gcat": {
    "class": "B",
    "category": "IMG-R",
    "owner": "QPS",
    "state": "J"
   },
   "omm": {
    "OBJECT_NAME": "QPS-SAR-14 (YACHIHOKO-I)",
    "OBJECT_ID": "2025-252A",
    "EPOCH": "2026-07-13T12:01:00.786720",
    "MEAN_MOTION": 14.99809383,
    "ECCENTRICITY": 0.00043969,
    "INCLINATION": 42.0048,
    "RA_OF_ASC_NODE": 347.1414,
    "ARG_OF_PERICENTER": 58.474,
    "MEAN_ANOMALY": 301.6514,
    "EPHEMERIS_TYPE": 0,
    "CLASSIFICATION_TYPE": "U",
    "NORAD_CAT_ID": 66316,
    "ELEMENT_SET_NO": 999,
    "REV_AT_EPOCH": 3746,
    "BSTAR": 0.00020205569,
    "MEAN_MOTION_DOT": 0.00002359,
    "MEAN_MOTION_DDOT": 0
   }
  },
  {
   "norad": 67228,
   "name": "QPS-SAR-15 (SUKUNAMI-I)",
   "intl": "2025-307A",
   "group": "sar",
   "gcat": {
    "class": "B",
    "category": "IMG-R",
    "owner": "QPS",
    "state": "J"
   },
   "omm": {
    "OBJECT_NAME": "QPS-SAR-15 (SUKUNAMI-I)",
    "OBJECT_ID": "2025-307A",
    "EPOCH": "2026-07-13T00:34:20.106048",
    "MEAN_MOTION": 14.99184764,
    "ECCENTRICITY": 0.00099494,
    "INCLINATION": 42.0067,
    "RA_OF_ASC_NODE": 85.9954,
    "ARG_OF_PERICENTER": 171.8828,
    "MEAN_ANOMALY": 188.216,
    "EPHEMERIS_TYPE": 0,
    "CLASSIFICATION_TYPE": "U",
    "NORAD_CAT_ID": 67228,
    "ELEMENT_SET_NO": 999,
    "REV_AT_EPOCH": 3056,
    "BSTAR": 0.00020559459,
    "MEAN_MOTION_DOT": 0.00002364,
    "MEAN_MOTION_DDOT": 0
   }
  },
  {
   "norad": 58578,
   "name": "QPS-SAR-5 (TSUKUYOMI-I)",
   "intl": "2023-196A",
   "group": "sar",
   "gcat": {
    "class": "B",
    "category": "IMG-R",
    "owner": "QPS",
    "state": "J"
   },
   "omm": {
    "OBJECT_NAME": "QPS-SAR-5 (TSUKUYOMI-I)",
    "OBJECT_ID": "2023-196A",
    "EPOCH": "2026-07-13T12:51:42.859008",
    "MEAN_MOTION": 15.23162332,
    "ECCENTRICITY": 0.0025241,
    "INCLINATION": 42.0075,
    "RA_OF_ASC_NODE": 225.7741,
    "ARG_OF_PERICENTER": 99.0225,
    "MEAN_ANOMALY": 261.3467,
    "EPHEMERIS_TYPE": 0,
    "CLASSIFICATION_TYPE": "U",
    "NORAD_CAT_ID": 58578,
    "ELEMENT_SET_NO": 999,
    "REV_AT_EPOCH": 14226,
    "BSTAR": 0.00024876,
    "MEAN_MOTION_DOT": 0.00005814,
    "MEAN_MOTION_DDOT": 0
   }
  },
  {
   "norad": 59447,
   "name": "QPS-SAR-7 (TSUKUYOMI-II)",
   "intl": "2024-066F",
   "group": "sar",
   "gcat": {
    "class": "B",
    "category": "IMG-R",
    "owner": "QPS",
    "state": "J"
   },
   "omm": {
    "OBJECT_NAME": "QPS-SAR-7 (TSUKUYOMI-II)",
    "OBJECT_ID": "2024-066F",
    "EPOCH": "2026-07-13T20:19:02.974944",
    "MEAN_MOTION": 15.0923537,
    "ECCENTRICITY": 0.0000943,
    "INCLINATION": 45.604,
    "RA_OF_ASC_NODE": 105.3895,
    "ARG_OF_PERICENTER": 138.2196,
    "MEAN_ANOMALY": 221.8761,
    "EPHEMERIS_TYPE": 0,
    "CLASSIFICATION_TYPE": "U",
    "NORAD_CAT_ID": 59447,
    "ELEMENT_SET_NO": 999,
    "REV_AT_EPOCH": 12425,
    "BSTAR": 0.00023383,
    "MEAN_MOTION_DOT": 0.00003527,
    "MEAN_MOTION_DDOT": 0
   }
  }
 ]
}
