QPS-SAR-5 (TSUKUYOMI-I) 
1 58578U 23196A   26194.53591272  .00005814  00000+0  24876-3 0  9997
2 58578  42.0075 225.7741 0025241  99.0225 261.3467 15.23162332142264
QPS-SAR-7 (TSUKUYOMI-II)
1 59447U 24066F   26194.84656221  .00003527  00000+0  23383-3 0  9991
2 59447  45.6040 105.3895 0000943 138.2196 221.8761 15.09235370124253
PRSC-EO1                
1 62725U 25012A   26194.82838084  .00003753  00000+0  18990-3 0  9992
2 62725  97.4221 266.7659 0006654 150.3739 209.7873 15.17609732 82231
QPS-SAR-10 (WADATSUMI-I)
1 64055U 25104A   26194.85633578  .00002409  00000+0  19473-3 0  9990
2 64055  42.0031 131.8624 0012371 158.7547 201.3795 15.01975651 63442
QPS-SAR-11 (YAMATSUMI-I)
1 64340U 25125A   26194.72856948  .00002294  00000+0  18688-3 0  9993
2 64340  42.0088  45.4069 0011334 295.9379  64.0279 15.01824026 59613
PRSC-S1                 
1 65055U 25164A   26194.91372350  .00002257  00000+0  16135-3 0  9995
2 65055  41.1296 137.2644 0006508 189.9382 170.1304 15.06628777 52464
QPS-SAR-12 (KUSHINADA-I)
1 65116U 25169A   26194.52308816  .00001833  00000+0  15528-3 0  9995
2 65116  42.0100 230.9316 0007014  17.6710 342.4359 15.01059937 51372
QPS-SAR-14 (YACHIHOKO-I)
1 66316U 25252A   26194.50070355  .00002359  00000+0  20206-3 0  9996
2 66316  42.0048 347.1414 0004396  58.4740 301.6514 14.99809383 37460
QPS-SAR-15 (SUKUNAMI-I) 
1 67228U 25307A   26194.02384382  .00002364  00000+0  20559-3 0  9992
2 67228  42.0067  85.9954 0009949 171.8828 188.2160 14.99184764 30565
PRSC-E03                
1 68835U 26092A   26194.69715823  .00001343  00000+0  95726-4 0  9995
2 68835  38.0017 293.3420 0004801 241.9248 118.1028 15.06805087 11954
